<?xml version="1.0" encoding="UTF-8"?>
<kml xmlns="http://www.opengis.net/kml/2.2"><Document><name>jeju 가족여행 지도</name>
<Placemark><name>제주국제공항</name><description>렌터카·수하물 동선이 짧아 어린 자매와도 지치지 않게 시작.</description><Point><coordinates>126.493,33.5113,0</coordinates></Point></Placemark>
<Placemark><name>성산일출봉</name><description>완만한 계단 왕복 1시간, 유네스코 분화구. 성취감+자연학습.</description><Point><coordinates>126.942,33.4585,0</coordinates></Point></Placemark>
<Placemark><name>섭지코지</name><description>평탄한 잔디 언덕 산책로, 8세도 편하게 바다뷰.</description><Point><coordinates>126.9307,33.424,0</coordinates></Point></Placemark>
<Placemark><name>협재해수욕장</name><description>얕고 완만한 수심, 저학년도 안전한 물놀이.</description><Point><coordinates>126.2397,33.3939,0</coordinates></Point></Placemark>
<Placemark><name>한림공원</name><description>용암동굴+아열대 식물원+공작새, 오래 걸어도 안 지루.</description><Point><coordinates>126.2403,33.3892,0</coordinates></Point></Placemark>
<Placemark><name>오설록 티뮤지엄</name><description>초록 차밭 산책+아이스크림, 사진 명소.</description><Point><coordinates>126.2901,33.306,0</coordinates></Point></Placemark>
<Placemark><name>카멜리아힐</name><description>평탄 산책로·폭포·생태연못, 짧은 다리도 편하게.</description><Point><coordinates>126.3701,33.2892,0</coordinates></Point></Placemark>
<Placemark><name>만장굴</name><description>평탄 1km 용암동굴, 서늘·신비 탐험.</description><Point><coordinates>126.7701,33.5282,0</coordinates></Point></Placemark>
<Placemark><name>아쿠아플라넷 제주</name><description>돌고래 공연+대형 수조, 하루 종일 실내.</description><Point><coordinates>126.9278,33.4328,0</coordinates></Point></Placemark>
<Placemark><name>에코랜드 테마파크</name><description>곶자왈 꼬마기차+오리배, 걷기 부담 없이 자연.</description><Point><coordinates>126.6674,33.447,0</coordinates></Point></Placemark>
<Placemark><name>9.81파크</name><description>100cm↑ 보호자 동승 카트 레이싱, 무동력 스릴.</description><Point><coordinates>126.3663,33.3899,0</coordinates></Point></Placemark>
<Placemark><name>제주항공우주박물관</name><description>실물 조종석·우주선 체험, 비행기 좋아하면 최고.</description><Point><coordinates>126.2989,33.3039,0</coordinates></Point></Placemark>
<Placemark><name>함덕해수욕장</name><description>에메랄드빛 얕은 바다, 아이 물놀이 최적.</description><Point><coordinates>126.669,33.543,0</coordinates></Point></Placemark>
<Placemark><name>천지연폭포</name><description>짧고 평탄한 산책로 끝 폭포, 야간 조명도.</description><Point><coordinates>126.5544,33.2469,0</coordinates></Point></Placemark>
<Placemark><name>중문색달해수욕장</name><description>서핑 명소(파도). 어린 자녀는 얕은 구간 보호자 동반.</description><Point><coordinates>126.411,33.245,0</coordinates></Point></Placemark>
<Placemark><name>테디베어뮤지엄</name><description>실내 곰인형 전시·공연, 날씨 무관.</description><Point><coordinates>126.4122,33.2504,0</coordinates></Point></Placemark>
<Placemark><name>우도(성산항 도항선)</name><description>배 타고 들어가는 섬 여행. 홍조단괴 백사장·등대, 전기차로 섬 한 바퀴.</description><Point><coordinates>126.953,33.5007,0</coordinates></Point></Placemark>
<Placemark><name>가파도(운진항 배)</name><description>납작한 섬을 걸어서 한 바퀴. 여름엔 파란 바다와 돌담길 산책.</description><Point><coordinates>126.268,33.1683,0</coordinates></Point></Placemark>
<Placemark><name>애월 해안도로 드라이브</name><description>에메랄드 바다를 끼고 달리는 인생 드라이브. 중간중간 카페·포토존.</description><Point><coordinates>126.308,33.463,0</coordinates></Point></Placemark>
<Placemark><name>🏨 제주신라호텔</name><description>5성급 리조트, 아쿠아클럽(실내외 풀)·키즈, 최상급 청결·서비스.</description><Point><coordinates>126.4131,33.2444,0</coordinates></Point></Placemark>
<Placemark><name>🏨 롯데호텔 제주</name><description>중문 대형 리조트, 실내외 수영장·화산 분수쇼·정원, 가족 인기.</description><Point><coordinates>126.411,33.2469,0</coordinates></Point></Placemark>
<Placemark><name>🏨 그랜드 하얏트 제주</name><description>제주시 노형 최고층, 아일랜더블루 실내외 풀, 신축·청결·공항 근접.</description><Point><coordinates>126.498,33.489,0</coordinates></Point></Placemark>
<Placemark><name>🏨 파르나스 호텔 제주</name><description>색달해변 신축 럭셔리, 실내외 인피니티 풀·오션뷰, 매우 깨끗함.</description><Point><coordinates>126.405,33.245,0</coordinates></Point></Placemark>
<Placemark><name>🏨 해비치 호텔앤드리조트 제주</name><description>표선 해안 리조트, 실내외 수영장·넓은 오션뷰 객실·아이 패키지.</description><Point><coordinates>126.8347,33.3247,0</coordinates></Point></Placemark>
<Placemark><name>🏨 랜딩관 제주신화월드</name><description>신화워터파크(실내외) 인접, 테마파크·아이 천국, 넓고 깨끗한 리조트.</description><Point><coordinates>126.305,33.308,0</coordinates></Point></Placemark>
</Document></kml>