<?xml version="1.0" encoding="UTF-8"?>
<kml xmlns="http://www.opengis.net/kml/2.2"><Document><name>busan 가족여행 지도</name>
<Placemark><name>부산역</name><description>수서에서 SRT 직행. 해운대까지 지하철·택시 약 40분.</description><Point><coordinates>129.0416,35.1151,0</coordinates></Point></Placemark>
<Placemark><name>해운대 해수욕장</name><description>넓은 백사장·완만한 수심으로 물놀이·모래놀이 최적. 블로거 공통 아이 만족 코스.</description><Point><coordinates>129.1604,35.1587,0</coordinates></Point></Placemark>
<Placemark><name>SEA LIFE 부산아쿠아리움</name><description>해변 바로 앞 실내. 상어터널·펭귄, 더운 날/비 오는 날 완벽한 대안.</description><Point><coordinates>129.1594,35.1589,0</coordinates></Point></Placemark>
<Placemark><name>광안리 해수욕장</name><description>광안대교 야경 명소. 저녁 산책·간식, 요트투어 출발지.</description><Point><coordinates>129.1186,35.1531,0</coordinates></Point></Placemark>
<Placemark><name>해동용궁사</name><description>바다 절벽 위 사찰. 계단 많지만 초등 이상에게 인상적. 아침 일찍이 덜 붐빔.</description><Point><coordinates>129.2233,35.1885,0</coordinates></Point></Placemark>
<Placemark><name>롯데월드 어드벤처 부산</name><description>기장 오시리아. 실내외 놀이기구·캐릭터쇼로 하루 종일. 여아 만족 최상.</description><Point><coordinates>129.215,35.1964,0</coordinates></Point></Placemark>
<Placemark><name>해운대 블루라인파크 (미포)</name><description>블로거 아이 만족 1위 코스. 바다 위 파스텔 캡슐·해변열차(미포→청사포→송정).</description><Point><coordinates>129.1706,35.1614,0</coordinates></Point></Placemark>
<Placemark><name>광안리 요트투어</name><description>블로거 다수가 &#x27;아이들이 여행 중 제일 재밌어함&#x27;으로 꼽은 체험. 광안대교 야경·드론쇼.</description><Point><coordinates>129.12,35.152,0</coordinates></Point></Placemark>
<Placemark><name>삼진어묵 체험역사관</name><description>직접 어묵 만들고 시식. 블로거 아이 만족 상위 체험.</description><Point><coordinates>129.0447,35.0776,0</coordinates></Point></Placemark>
<Placemark><name>감천문화마을</name><description>알록달록 골목·포토존. 보물찾기하듯 산책. 오르막 계단 많음.</description><Point><coordinates>129.0107,35.0975,0</coordinates></Point></Placemark>
<Placemark><name>부산엑스더스카이</name><description>최고층급 전망대 오션뷰. (블로거는 야간 가성비엔 호불호) 우천 대안으로 유용.</description><Point><coordinates>129.1526,35.1633,0</coordinates></Point></Placemark>
<Placemark><name>국립부산과학관</name><description>만지고 체험하는 전시. 기장(용궁사 근처) 실내 — 폭염·우천 대안 최적.</description><Point><coordinates>129.2211,35.1878,0</coordinates></Point></Placemark>
<Placemark><name>신세계 센텀시티</name><description>아이스링크·아쿠아필드 등 실내 복합. 더운 날/비 오는 날 아이와 시간 보내기 좋음.</description><Point><coordinates>129.1306,35.1691,0</coordinates></Point></Placemark>
<Placemark><name>태종대(다누비열차·유람선)</name><description>기암절벽을 도는 다누비열차와 유람선. 등대·전망대에서 탁 트인 바다.</description><Point><coordinates>129.0866,35.0536,0</coordinates></Point></Placemark>
<Placemark><name>오륙도 스카이워크</name><description>바다 위로 튀어나온 유리 전망대. 발밑이 바다라 아이들이 짜릿해함.</description><Point><coordinates>129.1236,35.0967,0</coordinates></Point></Placemark>
<Placemark><name>송도 해상케이블카</name><description>바다 위를 가로지르는 케이블카. 크리스탈 캐빈은 발밑이 유리라 스릴 만점.</description><Point><coordinates>129.0166,35.0757,0</coordinates></Point></Placemark>
<Placemark><name>이기대 해안 드라이브·산책</name><description>광안대교가 보이는 해안 드라이브와 갯바위 산책로. 뷰 맛집.</description><Point><coordinates>129.125,35.1236,0</coordinates></Point></Placemark>
<Placemark><name>🏨 그랜드 조선 부산</name><description>해운대 해변 앞 5성급, 실내외 수영장·키즈 프로그램, 깨끗하고 넓은 객실.</description><Point><coordinates>129.1585,35.1585,0</coordinates></Point></Placemark>
<Placemark><name>🏨 파라다이스 호텔 부산</name><description>해운대 랜드마크, 씨메르(실내외 온천 워터)로 아이 물놀이 최고, 오션뷰.</description><Point><coordinates>129.161,35.1595,0</coordinates></Point></Placemark>
<Placemark><name>🏨 시그니엘 부산</name><description>엘시티 최고층 럭셔리, 실내 수영장·최상급 청결·전 객실 오션뷰.</description><Point><coordinates>129.169,35.162,0</coordinates></Point></Placemark>
<Placemark><name>🏨 웨스틴 조선 부산</name><description>동백섬·해운대 해변, 실내 수영장, 넓고 조용해 가족에 좋음.</description><Point><coordinates>129.152,35.156,0</coordinates></Point></Placemark>
<Placemark><name>🏨 아난티 힐튼 부산</name><description>기장 해안, 워터하우스 대형 실내외 워터파크로 아이들이 가장 좋아함.</description><Point><coordinates>129.227,35.236,0</coordinates></Point></Placemark>
<Placemark><name>🏨 롯데호텔 부산</name><description>서면 중심 5성급, 실내 수영장·쇼핑 연결, 접근성 최고.</description><Point><coordinates>129.059,35.1585,0</coordinates></Point></Placemark>
</Document></kml>